[{"OBJECT_NAME":"ONEWEB-0142","OBJECT_ID":"2020-100AG","EPOCH":"2026-03-25T12:34:28.424640","MEAN_MOTION":13.12446823,"ECCENTRICITY":0.00018853,"INCLINATION":87.9015,"RA_OF_ASC_NODE":7.2795,"ARG_OF_PERICENTER":66.3211,"MEAN_ANOMALY":293.8115,"EPHEMERIS_TYPE":0,"CLASSIFICATION_TYPE":"U","NORAD_CAT_ID":47288,"ELEMENT_SET_NO":999,"REV_AT_EPOCH":25369,"BSTAR":0.00042783068,"MEAN_MOTION_DOT":1.67e-6,"MEAN_MOTION_DDOT":0},{"OBJECT_NAME":"ONEWEB-0143","OBJECT_ID":"2020-100AH","EPOCH":"2026-03-25T12:48:55.762272","MEAN_MOTION":13.12444739,"ECCENTRICITY":0.00018096,"INCLINATION":87.9018,"RA_OF_ASC_NODE":7.274,"ARG_OF_PERICENTER":77.9249,"MEAN_ANOMALY":282.2083,"EPHEMERIS_TYPE":0,"CLASSIFICATION_TYPE":"U","NORAD_CAT_ID":47289,"ELEMENT_SET_NO":999,"REV_AT_EPOCH":25367,"BSTAR":0.0010530065,"MEAN_MOTION_DOT":3.92e-6,"MEAN_MOTION_DDOT":0},{"OBJECT_NAME":"ONEWEB-0144","OBJECT_ID":"2020-100AJ","EPOCH":"2026-03-25T12:07:27.351552","MEAN_MOTION":13.12442818,"ECCENTRICITY":0.00021036,"INCLINATION":87.9018,"RA_OF_ASC_NODE":7.2499,"ARG_OF_PERICENTER":72.7018,"MEAN_ANOMALY":287.434,"EPHEMERIS_TYPE":0,"CLASSIFICATION_TYPE":"U","NORAD_CAT_ID":47290,"ELEMENT_SET_NO":999,"REV_AT_EPOCH":25359,"BSTAR":-0.0010824861,"MEAN_MOTION_DOT":-3.77e-6,"MEAN_MOTION_DDOT":0},{"OBJECT_NAME":"ONEWEB-0145","OBJECT_ID":"2020-100AK","EPOCH":"2026-03-25T11:25:59.990592","MEAN_MOTION":13.1244271,"ECCENTRICITY":0.00018654,"INCLINATION":87.9006,"RA_OF_ASC_NODE":7.2928,"ARG_OF_PERICENTER":75.8711,"MEAN_ANOMALY":284.2625,"EPHEMERIS_TYPE":0,"CLASSIFICATION_TYPE":"U","NORAD_CAT_ID":47291,"ELEMENT_SET_NO":999,"REV_AT_EPOCH":25378,"BSTAR":0.00078859453,"MEAN_MOTION_DOT":2.96e-6,"MEAN_MOTION_DDOT":0},{"OBJECT_NAME":"ONEWEB-0146","OBJECT_ID":"2020-100AL","EPOCH":"2026-03-25T11:21:06.512256","MEAN_MOTION":13.12442128,"ECCENTRICITY":0.00016955,"INCLINATION":87.9015,"RA_OF_ASC_NODE":7.2793,"ARG_OF_PERICENTER":88.5908,"MEAN_ANOMALY":271.5415,"EPHEMERIS_TYPE":0,"CLASSIFICATION_TYPE":"U","NORAD_CAT_ID":47292,"ELEMENT_SET_NO":999,"REV_AT_EPOCH":25369,"BSTAR":0.00078208119,"MEAN_MOTION_DOT":2.94e-6,"MEAN_MOTION_DDOT":0},{"OBJECT_NAME":"ONEWEB-0147","OBJECT_ID":"2020-100AM","EPOCH":"2026-03-25T12:22:06.412800","MEAN_MOTION":13.12435865,"ECCENTRICITY":0.00020639,"INCLINATION":87.9018,"RA_OF_ASC_NODE":7.251,"ARG_OF_PERICENTER":82.0578,"MEAN_ANOMALY":278.0785,"EPHEMERIS_TYPE":0,"CLASSIFICATION_TYPE":"U","NORAD_CAT_ID":47293,"ELEMENT_SET_NO":999,"REV_AT_EPOCH":25359,"BSTAR":-0.0034523325,"MEAN_MOTION_DOT":-1.229e-5,"MEAN_MOTION_DDOT":0},{"OBJECT_NAME":"ONEWEB-0115","OBJECT_ID":"2021-025A","EPOCH":"2026-03-25T10:57:24.358752","MEAN_MOTION":13.13471888,"ECCENTRICITY":0.00017129,"INCLINATION":87.9024,"RA_OF_ASC_NODE":336.8847,"ARG_OF_PERICENTER":81.8357,"MEAN_ANOMALY":278.2966,"EPHEMERIS_TYPE":0,"CLASSIFICATION_TYPE":"U","NORAD_CAT_ID":48042,"ELEMENT_SET_NO":999,"REV_AT_EPOCH":24260,"BSTAR":0.00079313228,"MEAN_MOTION_DOT":3.02e-6,"MEAN_MOTION_DDOT":0},{"OBJECT_NAME":"ONEWEB-0152","OBJECT_ID":"2021-025B","EPOCH":"2026-03-25T09:27:12.630816","MEAN_MOTION":13.13471076,"ECCENTRICITY":0.00016849,"INCLINATION":87.9019,"RA_OF_ASC_NODE":336.8977,"ARG_OF_PERICENTER":83.7744,"MEAN_ANOMALY":276.3578,"EPHEMERIS_TYPE":0,"CLASSIFICATION_TYPE":"U","NORAD_CAT_ID":48043,"ELEMENT_SET_NO":999,"REV_AT_EPOCH":24255,"BSTAR":0.00045142761,"MEAN_MOTION_DOT":1.78e-6,"MEAN_MOTION_DDOT":0},{"OBJECT_NAME":"ONEWEB-0153","OBJECT_ID":"2021-025C","EPOCH":"2026-03-25T10:45:13.178016","MEAN_MOTION":13.13472028,"ECCENTRICITY":0.00017472,"INCLINATION":87.9016,"RA_OF_ASC_NODE":336.8918,"ARG_OF_PERICENTER":77.1899,"MEAN_ANOMALY":282.9426,"EPHEMERIS_TYPE":0,"CLASSIFICATION_TYPE":"U","NORAD_CAT_ID":48044,"ELEMENT_SET_NO":999,"REV_AT_EPOCH":24255,"BSTAR":0.00072493217,"MEAN_MOTION_DOT":2.77e-6,"MEAN_MOTION_DDOT":0},{"OBJECT_NAME":"ONEWEB-0154","OBJECT_ID":"2021-025D","EPOCH":"2026-03-25T10:40:20.916192","MEAN_MOTION":13.13469772,"ECCENTRICITY":0.00018335,"INCLINATION":87.9016,"RA_OF_ASC_NODE":336.89,"ARG_OF_PERICENTER":82.4748,"MEAN_ANOMALY":277.659,"EPHEMERIS_TYPE":0,"CLASSIFICATION_TYPE":"U","NORAD_CAT_ID":48045,"ELEMENT_SET_NO":999,"REV_AT_EPOCH":24251,"BSTAR":0.0007155872,"MEAN_MOTION_DOT":2.74e-6,"MEAN_MOTION_DDOT":0},{"OBJECT_NAME":"ONEWEB-0116","OBJECT_ID":"2021-025E","EPOCH":"2026-03-25T15:15:47.715552","MEAN_MOTION":13.13470914,"ECCENTRICITY":0.00016946,"INCLINATION":87.9026,"RA_OF_ASC_NODE":336.8414,"ARG_OF_PERICENTER":84.4682,"MEAN_ANOMALY":275.6641,"EPHEMERIS_TYPE":0,"CLASSIFICATION_TYPE":"U","NORAD_CAT_ID":48046,"ELEMENT_SET_NO":999,"REV_AT_EPOCH":24268,"BSTAR":-0.00051593844,"MEAN_MOTION_DOT":-1.76e-6,"MEAN_MOTION_DDOT":0},{"OBJECT_NAME":"ONEWEB-0150","OBJECT_ID":"2021-025F","EPOCH":"2026-03-25T09:12:35.150688","MEAN_MOTION":13.13471307,"ECCENTRICITY":0.00015685,"INCLINATION":87.9027,"RA_OF_ASC_NODE":336.8892,"ARG_OF_PERICENTER":75.5441,"MEAN_ANOMALY":284.5862,"EPHEMERIS_TYPE":0,"CLASSIFICATION_TYPE":"U","NORAD_CAT_ID":48047,"ELEMENT_SET_NO":999,"REV_AT_EPOCH":24254,"BSTAR":0.00093920621,"MEAN_MOTION_DOT":3.56e-6,"MEAN_MOTION_DDOT":0},{"OBJECT_NAME":"ONEWEB-0107","OBJECT_ID":"2021-025G","EPOCH":"2026-03-25T03:45:56.897856","MEAN_MOTION":13.13470285,"ECCENTRICITY":0.00018432,"INCLINATION":87.9027,"RA_OF_ASC_NODE":336.9291,"ARG_OF_PERICENTER":72.8813,"MEAN_ANOMALY":287.2518,"EPHEMERIS_TYPE":0,"CLASSIFICATION_TYPE":"U","NORAD_CAT_ID":48048,"ELEMENT_SET_NO":999,"REV_AT_EPOCH":24249,"BSTAR":0.00076119234,"MEAN_MOTION_DOT":2.91e-6,"MEAN_MOTION_DDOT":0},{"OBJECT_NAME":"ONEWEB-0101","OBJECT_ID":"2021-025H","EPOCH":"2026-03-25T10:11:05.545536","MEAN_MOTION":13.13471347,"ECCENTRICITY":0.0001889,"INCLINATION":87.9014,"RA_OF_ASC_NODE":336.9004,"ARG_OF_PERICENTER":78.3642,"MEAN_ANOMALY":281.7699,"EPHEMERIS_TYPE":0,"CLASSIFICATION_TYPE":"U","NORAD_CAT_ID":48049,"ELEMENT_SET_NO":999,"REV_AT_EPOCH":24250,"BSTAR":-0.00069993195,"MEAN_MOTION_DOT":-2.43e-6,"MEAN_MOTION_DDOT":0},{"OBJECT_NAME":"ONEWEB-0113","OBJECT_ID":"2021-025J","EPOCH":"2026-03-25T15:06:48.894048","MEAN_MOTION":13.139511,"ECCENTRICITY":0.0001614,"INCLINATION":87.9023,"RA_OF_ASC_NODE":336.7777,"ARG_OF_PERICENTER":91.7455,"MEAN_ANOMALY":268.386,"EPHEMERIS_TYPE":0,"CLASSIFICATION_TYPE":"U","NORAD_CAT_ID":48050,"ELEMENT_SET_NO":999,"REV_AT_EPOCH":24263,"BSTAR":-0.0001073082,"MEAN_MOTION_DOT":-2.7e-7,"MEAN_MOTION_DDOT":0},{"OBJECT_NAME":"ONEWEB-0112","OBJECT_ID":"2021-025K","EPOCH":"2026-03-25T09:22:19.563744","MEAN_MOTION":13.13471616,"ECCENTRICITY":0.00019606,"INCLINATION":87.9025,"RA_OF_ASC_NODE":336.8807,"ARG_OF_PERICENTER":77.096,"MEAN_ANOMALY":283.0388,"EPHEMERIS_TYPE":0,"CLASSIFICATION_TYPE":"U","NORAD_CAT_ID":48051,"ELEMENT_SET_NO":999,"REV_AT_EPOCH":24259,"BSTAR":0.00060579672,"MEAN_MOTION_DOT":2.34e-6,"MEAN_MOTION_DDOT":0}]
