ONEWEB-0142             
1 47288U 20100AG  26084.52394010  .00000167  00000+0  42783-3 0  9996
2 47288  87.9015   7.2795 0001885  66.3211 293.8115 13.12446823253690
ONEWEB-0143             
1 47289U 20100AH  26084.53397873  .00000392  00000+0  10530-2 0  9992
2 47289  87.9018   7.2740 0001809  77.9249 282.2083 13.12444739253677
ONEWEB-0144             
1 47290U 20100AJ  26084.50517768 -.00000377  00000+0 -10825-2 0  9990
2 47290  87.9018   7.2499 0002103  72.7018 287.4340 13.12442818253595
ONEWEB-0145             
1 47291U 20100AK  26084.47638878  .00000296  00000+0  78859-3 0  9993
2 47291  87.9006   7.2928 0001865  75.8711 284.2625 13.12442710253781
ONEWEB-0146             
1 47292U 20100AL  26084.47299204  .00000294  00000+0  78208-3 0  9996
2 47292  87.9015   7.2793 0001695  88.5908 271.5415 13.12442128253691
ONEWEB-0147             
1 47293U 20100AM  26084.51535200 -.00001229  00000+0 -34523-2 0  9993
2 47293  87.9018   7.2510 0002063  82.0578 278.0785 13.12435865253595
ONEWEB-0115             
1 48042U 21025A   26084.45653193  .00000302  00000+0  79313-3 0  9994
2 48042  87.9024 336.8847 0001712  81.8357 278.2966 13.13471888242600
ONEWEB-0152             
1 48043U 21025B   26084.39389619  .00000178  00000+0  45143-3 0  9992
2 48043  87.9019 336.8977 0001684  83.7744 276.3578 13.13471076242559
ONEWEB-0153             
1 48044U 21025C   26084.44806919  .00000277  00000+0  72493-3 0  9994
2 48044  87.9016 336.8918 0001747  77.1899 282.9426 13.13472028242553
ONEWEB-0154             
1 48045U 21025D   26084.44468653  .00000274  00000+0  71559-3 0  9993
2 48045  87.9016 336.8900 0001833  82.4748 277.6590 13.13469772242514
ONEWEB-0116             
1 48046U 21025E   26084.63596893 -.00000176  00000+0 -51594-3 0  9993
2 48046  87.9026 336.8414 0001694  84.4682 275.6641 13.13470914242683
ONEWEB-0150             
1 48047U 21025F   26084.38374017  .00000356  00000+0  93921-3 0  9996
2 48047  87.9027 336.8892 0001568  75.5441 284.5862 13.13471307242545
ONEWEB-0107             
1 48048U 21025G   26084.15690854  .00000291  00000+0  76119-3 0  9990
2 48048  87.9027 336.9291 0001843  72.8813 287.2518 13.13470285242495
ONEWEB-0101             
1 48049U 21025H   26084.42436974 -.00000243  00000+0 -69993-3 0  9993
2 48049  87.9014 336.9004 0001889  78.3642 281.7699 13.13471347242506
ONEWEB-0113             
1 48050U 21025J   26084.62973257 -.00000027  00000+0 -10731-3 0  9993
2 48050  87.9023 336.7777 0001614  91.7455 268.3860 13.13951100242635
ONEWEB-0112             
1 48051U 21025K   26084.39050421  .00000234  00000+0  60580-3 0  9992
2 48051  87.9025 336.8807 0001960  77.0960 283.0388 13.13471616242598
